[
    {
        "Altitude(m)": 607897.6412603669,
        "Argument of Periapsis(deg)": 0.0,
        "Eccentricity": 0.0,
        "Inclination(deg)": 60.0,
        "Latitude(deg)": -14.293084638544691,
        "Longitude(deg)": -108.38125369096203,
        "Mean Anomaly(deg)": 343.6364,
        "RAAN(deg)": 0.0,
        "Satellite Name": "Test1 21",
        "Satellite Number": 21,
        "Semi-Major Axis(m)": 6980739.136638005,
        "Time(s)": 0
    },
    {
        "Altitude(m)": 607750.8416597857,
        "Argument of Periapsis(deg)": 0.00010418945913296404,
        "Eccentricity": 0.0,
        "Inclination(deg)": 60.0,
        "Latitude(deg)": -13.758926220061749,
        "Longitude(deg)": -108.09418423992828,
        "Mean Anomaly(deg)": 344.2565061454618,
        "RAAN(deg)": -0.0004200491397426661,
        "Satellite Name": "Test1 21",
        "Satellite Number": 21,
        "Semi-Major Axis(m)": 6980739.136638005,
        "Time(s)": 10
    }
]